GLOBALSTAR M057         
1 25943U 99058A   25281.70979898 -.00000090  00000+0  27499-4 0  9993
2 25943  52.0011  26.0240 0002171 233.9503 126.1146 12.24827393180847
GLOBALSTAR M059         
1 25944U 99058B   25281.47736193 -.00000104  00000+0 -22050-3 0  9991
2 25944  52.0010 260.6858 0000289  93.0147  52.3239 11.99988335587642
GLOBALSTAR M056         
1 25945U 99058C   25281.44592712 -.00000081  00000+0  79788-4 0  9990
2 25945  51.9954 259.8262 0001279  45.5881 123.8511 12.04779352176278
GLOBALSTAR M031         
1 25946U 99058D   25281.91317476  .00000034  00000+0  12593-2 0  9991
2 25946  51.9938 144.0681 0002260  61.4573 312.2174 12.16041607178388
GLOBALSTAR M039         
1 25961U 99062A   25281.47150957 -.00000096  00000+0  43509-4 0  9995
2 25961  51.9841 283.6734 0002332 237.3672 122.6969 12.62333290194523
GLOBALSTAR M034         
1 25962U 99062B   25281.87158146 -.00000077  00000+0  68153-4 0  9999
2 25962  51.9867  75.8692 0013274 254.7263 259.0470 11.79449091151802
GLOBALSTAR M029         
1 25963U 99062C   25281.88004802 -.00000055  00000+0  38849-3 0  9994
2 25963  51.9783 147.5344 0002664   3.2873   9.0973 11.99901934182778
GLOBALSTAR M061         
1 25964U 99062D   25281.45883690 -.00000083  00000+0 -46413-4 0  9997
2 25964  51.9781 262.4850 0005678 175.8611 355.0787 11.76777200134518
